PROBA-1                 
1 26958U 01049B   22359.44355402  .00002335  00000+0  19770-3 0  9991
2 26958  97.8502 319.6137 0072326  67.5915 293.2948 14.97005075153044
BIRD 2                  
1 26959U 01049C   22358.87366764  .00020904  00000+0  36325-3 0  9998
2 26959  97.7659 104.3280 0006171  52.6994 307.4818 15.50835812482625
CUTE-1 (CO-55)          
1 27844U 03031E   22358.76212500  .00000289  00000+0  14902-3 0  9992
2 27844  98.6790   3.5922 0008796 271.2258  88.7912 14.22566654 10933
CUBESAT XI-IV (CO-57)   
1 27848U 03031J   22358.99633714  .00000233  00000+0  12496-3 0  9990
2 27848  98.6831   4.2971 0008714 286.9022  73.1200 14.22107714 10797
GENESIS 1               
1 29252U 06029A   22359.20383989  .00006609  00000+0  28312-3 0  9999
2 29252  64.5201 163.8855 0046580 234.0865 125.5934 15.22665761908060
FALCONSAT-3             
1 30776U 07006E   22359.22798980  .00229932  00000+0  90648-3 0  9998
2 30776  35.4253  71.1689 0007214 113.1544 246.9958 15.85194987879466
GENESIS 2               
1 31789U 07028A   22358.89285271  .00005123  00000+0  22525-3 0  9996
2 31789  64.4940 208.5915 0059704 285.6141  73.8400 15.21502320854852
APRIZESAT 4             
1 35684U 09041D   22358.78702823  .00000612  00000+0  87200-4 0  9996
2 35684  98.3012  18.8929 0047886 100.8015 259.8591 14.79884750723213
APRIZESAT 3             
1 35686U 09041F   22358.85865124  .00001141  00000+0  12450-3 0  9992
2 35686  98.1023  89.7434 0070232 284.2554  75.0868 14.88330119726920
PROBA-2                 
1 36037U 09059B   22359.07400995  .00000252  00000+0  71365-4 0  9991
2 36037  98.2206 182.1089 0012397 238.7078 121.2905 14.53353292697036
APRIZESAT 5             
1 37792U 11044E   22359.42096990  .00000649  00000+0  99678-4 0  9999
2 37792  98.2986 240.1864 0058631 114.8041 245.9282 14.76016561611310
APRIZESAT 6             
1 37793U 11044F   22358.87040604  .00000609  00000+0  10192-3 0  9998
2 37793  98.3759 217.1742 0046559 170.6739 255.2974 14.72999830609896
PROBA-V                 
1 39159U 13021A   22359.33234363  .00000031  00000+0  31829-4 0  9992
2 39159  98.3372  25.4057 0003100 246.3229 113.7625 14.23066622500479
STPSAT-3                
1 39380U 13064A   22359.17912581  .00089004  00000+0  99730-3 0  9993
2 39380  40.4982 318.5050 0012564 233.0348 126.9325 15.61515011510566
APRIZESAT 7             
1 39416U 13066A   22359.36068445  .00000979  00000+0  11962-3 0  9992
2 39416  97.5967 330.2268 0042021  89.0153 271.5876 14.84822846492397
APRIZESAT 8             
1 39425U 13066K   22359.22117763  .00000762  00000+0  10041-3 0  9992
2 39425  97.6543 321.9254 0052188 134.5717 225.9775 14.81936347491486
BUGSAT-1 (TITA)         
1 40014U 14033E   22359.28924768  .00002673  00000+0  23216-3 0  9991
2 40014  98.1446   5.6412 0030951 124.3229 236.0930 14.97593656464699
SAUDISAT 4              
1 40016U 14033G   22359.11274396  .00000617  00000+0  95790-4 0  9993
2 40016  97.6340 183.4643 0046642 242.0686 117.5798 14.75755392458532
APRIZESAT 9             
1 40018U 14033J   22359.42567027  .00000487  00000+0  85342-4 0  9992
2 40018  97.7300 159.9888 0069910 321.3401  38.2813 14.70469432456840
APRIZESAT 10            
1 40019U 14033K   22359.42449887  .00000357  00000+0  68163-4 0  9994
2 40019  97.7898 150.0906 0083854   7.9875 352.2643 14.67499303455981
TDS 1                   
1 40076U 14037H   22359.46960941  .00002355  00000+0  27250-3 0  9995
2 40076  98.3649 242.4322 0006702 163.0538 197.0901 14.86566644458158
TIANTUO 2               
1 40144U 14053B   22359.40335847  .00008259  00000+0  20631-3 0  9999
2 40144  97.1799  75.6710 0008899 222.3183 204.1737 15.40364240464465
TECHNOSAT               
1 42829U 17042E   22359.14165090  .00001599  00000+0  16085-3 0  9992
2 42829  97.3984 201.9882 0015379  88.8667 271.4315 14.92423433296527
FLYING LAPTOP           
1 42831U 17042G   22358.79937598  .00002140  00000+0  21452-3 0  9992
2 42831  97.3997 202.0074 0015385  90.7136 269.5848 14.92237827296472
HAWK-A                  
1 43765U 18099H   22358.85875305  .00002627  00000+0  22804-3 0  9998
2 43765  97.5971  61.8990 0014042 358.8736   1.2453 14.97820838221638
HAWK-B                  
1 43794U 18099AN  22359.12637918  .00002716  00000+0  23551-3 0  9996
2 43794  97.5972  62.1592 0014077 358.4822   1.6355 14.97825119221668
HAWK-C                  
1 43799U 18099AT  22359.25977318  .00003079  00000+0  26632-3 0  9992
2 43799  97.5969  62.1939 0013955 357.8493   2.2667 14.97825584221686
SALSAT                  
1 46495U 20068K   22358.85390537  .00003669  00000+0  25852-3 0  9992
2 46495  97.7522 300.5231 0016199 357.8293   2.2860 15.05552244122825
